[{"OBJECT_NAME":"JILIN-1 GAOFEN 03D15","OBJECT_ID":"2022-019R","EPOCH":"2026-03-09T23:58:07.561632","MEAN_MOTION":15.6920844,"ECCENTRICITY":0.00039863,"INCLINATION":97.369,"RA_OF_ASC_NODE":160.232,"ARG_OF_PERICENTER":172.8619,"MEAN_ANOMALY":187.27,"EPHEMERIS_TYPE":0,"CLASSIFICATION_TYPE":"U","NORAD_CAT_ID":51839,"ELEMENT_SET_NO":999,"REV_AT_EPOCH":22441,"BSTAR":0.0010884373,"MEAN_MOTION_DOT":0.00128061,"MEAN_MOTION_DDOT":0},{"OBJECT_NAME":"STARLINK-11244 [DTC]","OBJECT_ID":"2024-155C","EPOCH":"2026-03-09T21:29:18.269376","MEAN_MOTION":15.69710385,"ECCENTRICITY":9.391e-5,"INCLINATION":53.1591,"RA_OF_ASC_NODE":340.3147,"ARG_OF_PERICENTER":80.5883,"MEAN_ANOMALY":279.5241,"EPHEMERIS_TYPE":0,"CLASSIFICATION_TYPE":"U","NORAD_CAT_ID":60926,"ELEMENT_SET_NO":999,"REV_AT_EPOCH":8848,"BSTAR":-2.1513896e-5,"MEAN_MOTION_DOT":-3.194e-5,"MEAN_MOTION_DDOT":0}]
